GPS BIIA-23 (PRN 18)    
1 22877U 93068A   19068.48496019 -.00000009  00000-0  00000+0 0  9996
2 22877  54.6151  72.6283 0148443  78.6932   2.5267  2.00557515185878
GPS BIIR-2  (PRN 13)    
1 24876U 97035A   19067.77135294  .00000023  00000-0  00000+0 0  9996
2 24876  55.4666 202.3963 0034567  76.8783 283.4703  2.00564598158459
GPS BIIR-3  (PRN 11)    
1 25933U 99055A   19068.10727910 -.00000043  00000-0  00000+0 0  9998
2 25933  52.0660  50.1683 0163043 107.2044  62.7497  2.00561260142274
GPS BIIR-4  (PRN 20)    
1 26360U 00025A   19068.26860094  .00000016  00000-0  00000+0 0  9999
2 26360  53.2931 128.6049 0042173 134.0040 198.7957  2.00562845137976
GPS BIIR-5  (PRN 28)    
1 26407U 00040A   19067.66738215 -.00000036  00000-0  00000+0 0  9993
2 26407  56.3234 320.5351 0194662 275.6628 317.6489  2.00560862136644
GPS BIIR-6  (PRN 14)    
1 26605U 00071A   19068.48007719  .00000028  00000-0  00000+0 0  9996
2 26605  55.0405 199.8560 0104725 248.8327 122.5444  2.00562863134250
GPS BIIR-8  (PRN 16)    
1 27663U 03005A   19068.49915300 -.00000035  00000-0  00000+0 0  9995
2 27663  56.3841 320.2729 0105353  30.4796 200.1155  2.00550762118027
GPS BIIR-9  (PRN 21)    
1 27704U 03010A   19068.22937094 -.00000011  00000-0  00000+0 0  9996
2 27704  54.2890  72.1399 0249682 275.8458  89.4740  2.00551029116814
GPS BIIR-10 (PRN 22)    
1 28129U 03058A   19067.96303533  .00000015  00000-0  00000+0 0  9998
2 28129  53.1051 131.4219 0074695 279.2058  80.0300  2.00576398111503
GPS BIIR-11 (PRN 19)    
1 28190U 04009A   19067.90387731 -.00000065  00000-0  00000+0 0  9995
2 28190  56.2511  21.0816 0092154  77.2089 238.8802  2.00569768109682
GPS BIIR-12 (PRN 23)    
1 28361U 04023A   19068.58167872  .00000024  00000-0  00000+0 0  9992
2 28361  54.0511 194.3223 0130833 229.4634 128.5113  2.00568653107778
GPS BIIR-13 (PRN 02)    
1 28474U 04045A   19068.32844936 -.00000010  00000-0  00000+0 0  9992
2 28474  54.6496  71.8505 0191242 259.0258 279.9789  2.00564575105132
GPS BIIRM-1 (PRN 17)    
1 28874U 05038A   19068.18075022 -.00000065  00000-0  00000+0 0  9995
2 28874  56.3792  18.4118 0131816 261.6945 277.4367  2.00560378 98531
GPS BIIRM-2 (PRN 31)    
1 29486U 06042A   19068.32526164  .00000036  00000-0  00000+0 0  9992
2 29486  55.0456 257.0400 0092547 358.1276 203.7327  2.00575031 91257
GPS BIIRM-3 (PRN 12)    
1 29601U 06052A   19067.98953502 -.00000034  00000-0  00000+0 0  9992
2 29601  56.3633 319.2092 0073314  58.8759 301.9013  2.00562547 90166
GPS BIIRM-4 (PRN 15)    
1 32260U 07047A   19068.30119649  .00000019  00000-0  00000+0 0  9997
2 32260  53.1742 190.1143 0110871  43.1037 317.7390  2.00565873 83548
GPS BIIRM-5 (PRN 29)    
1 32384U 07062A   19068.36034969 -.00000064  00000-0  00000+0 0  9999
2 32384  56.4609  19.0358 0005432  79.9644 101.1360  2.00578089 82282
GPS BIIRM-6 (PRN 07)    
1 32711U 08012A   19067.70977351  .00000032  00000-0  00000+0 0  9991
2 32711  54.7841 256.2781 0124352 218.9379 140.1570  2.00571481 80455
GPS BIIRM-8 (PRN 05)    
1 35752U 09043A   19068.33605657  .00000018  00000-0  00000+0 0  9995
2 35752  54.3933 133.9497 0054007  38.7746  79.0639  2.00567076 70057
GPS BIIF-1  (PRN 25)    
1 36585U 10022A   19068.28183740 -.00000030  00000-0  00000+0 0  9992
2 36585  55.6451 315.5689 0081272  48.6268 134.7588  2.00555624 64304
GPS BIIF-2  (PRN 01)    
1 37753U 11036A   19067.65022771 -.00000004  00000-0  00000+0 0  9993
2 37753  55.8461  75.7212 0083327  37.8316 134.5247  2.00565747 55968
GPS BIIF-3  (PRN 24)    
1 38833U 12053A   19068.39351506  .00000035  00000-0  00000+0 0  9999
2 38833  53.8177 252.5490 0081044  33.0685 327.4246  2.00557138 47041
GPS BIIF-4  (PRN 27)    
1 39166U 13023A   19068.25588276 -.00000067  00000-0  00000+0 0  9994
2 39166  56.0652  15.2179 0067218  23.4763 336.8249  2.00568403 42587
GPS BIIF-5  (PRN 30)    
1 39533U 14008A   19068.25181505  .00000032  00000-0  00000+0 0  9991
2 39533  53.9522 257.9386 0037684 190.3256 169.5953  2.00569826 36943
GPS BIIF-6  (PRN 06)    
1 39741U 14026A   19068.04066394 -.00000004  00000-0  00000+0 0  9997
2 39741  55.8272  75.2312 0018137 290.2795  69.5619  2.00579255 35222
GPS BIIF-7  (PRN 09)    
1 40105U 14045A   19068.62519798  .00000026  00000-0  00000+0 0  9992
2 40105  54.5775 194.5700 0011842 101.1165 258.9939  2.00557745 33682
GPS BIIF-8  (PRN 03)    
1 40294U 14068A   19068.49234178  .00000019  00000-0  00000+0 0  9999
2 40294  55.1451 135.4192 0017940  28.3785 331.7976  2.00576076 31903
GPS BIIF-9  (PRN 26)    
1 40534U 15013A   19068.13969975 -.00000030  00000-0  00000+0 0  9992
2 40534  54.5763 314.0211 0036670   3.7448 356.3437  2.00576143 28962
GPS BIIF-10  (PRN 08)   
1 40730U 15033A   19068.29277491 -.00000068  00000-0  00000+0 0  9995
2 40730  55.5915  14.6018 0044140 338.9968  20.8203  2.00560145 26720
GPS BIIF-11  (PRN 10)   
1 41019U 15062A   19068.34419269  .00000019  00000-0  00000+0 0  9990
2 41019  55.1473 135.2374 0044912 206.2237 153.6259  2.00564691 24548
GPS BIIF-12  (PRN 32)   
1 41328U 16007A   19068.43972588  .00000025  00000-0  00000+0 0  9998
2 41328  54.8231 194.9400 0028157 215.2604 144.5293  2.00553002 22608
